start=new Date('2022-11-22T00:00:00.000Z').valueOf();
sats=[{"MEAN_MOTION":"15.08803583","EPHEMERIS_TYPE":"0","TLE_LINE2":"2 52878  53.2180  19.6189 0002296  39.1277 320.9881 15.08803583 24281","SITE":"AFETR","DECAY_DATE":null,"REV_AT_EPOCH":"2428","MEAN_ELEMENT_THEORY":"SGP4","OBJECT_TYPE":"PAYLOAD","PERIAPSIS":"538.268","PERIOD":"95.440","RCS_SIZE":"LARGE","ECCENTRICITY":"0.00022960","TLE_LINE1":"1 52878U 22062BA  22325.57000304  .00006931  00000-0  45356-3 0  9990","APOAPSIS":"541.445","OBJECT_ID":"2022-062BA","EPOCH":"2022-11-21T13:40:48.262656","COUNTRY_CODE":"US","MEAN_ANOMALY":"320.9881","FILE":"3666658","GP_ID":"218435401","REF_FRAME":"TEME","CENTER_NAME":"EARTH","TIME_SYSTEM":"UTC","LAUNCH_DATE":"2022-06-17","SEMIMAJOR_AXIS":"6917.992","MEAN_MOTION_DOT":"0.00006931","OBJECT_NAME":"STARLINK-4171","CLASSIFICATION_TYPE":"U","ARG_OF_PERICENTER":"39.1277","MEAN_MOTION_DDOT":"0.0000000000000","INCLINATION":"53.2180","ELEMENT_SET_NO":"999","BSTAR":"0.00045356000000","NORAD_CAT_ID":"52878","RA_OF_ASC_NODE":"19.6189"},{"FILE":"3666658","COUNTRY_CODE":"US","MEAN_ANOMALY":"326.7620","EPOCH":"2022-11-21T20:50:02.200128","CENTER_NAME":"EARTH","TIME_SYSTEM":"UTC","REF_FRAME":"TEME","GP_ID":"218436221","OBJECT_ID":"2022-062BB","TLE_LINE1":"1 52879U 22062BB  22325.86808102 -.00000385  00000-0 -60431-5 0  9997","APOAPSIS":"541.450","RCS_SIZE":"LARGE","PERIOD":"95.438","ECCENTRICITY":"0.00024400","PERIAPSIS":"538.074","NORAD_CAT_ID":"52879","BSTAR":"-0.00000604310000","ELEMENT_SET_NO":"999","RA_OF_ASC_NODE":"18.2764","OBJECT_NAME":"STARLINK-4139","MEAN_MOTION_DOT":"-0.00000385","SEMIMAJOR_AXIS":"6917.897","LAUNCH_DATE":"2022-06-17","INCLINATION":"53.2202","MEAN_MOTION_DDOT":"0.0000000000000","ARG_OF_PERICENTER":"33.3525","CLASSIFICATION_TYPE":"U","MEAN_MOTION":"15.08834701","EPHEMERIS_TYPE":"0","OBJECT_TYPE":"PAYLOAD","MEAN_ELEMENT_THEORY":"SGP4","TLE_LINE2":"2 52879  53.2202  18.2764 0002440  33.3525 326.7620 15.08834701 24331","REV_AT_EPOCH":"2433","DECAY_DATE":null,"SITE":"AFETR"},{"LAUNCH_DATE":"2022-06-17","SEMIMAJOR_AXIS":"6917.891","MEAN_MOTION_DOT":"-0.00000478","OBJECT_NAME":"STARLINK-4186","CLASSIFICATION_TYPE":"U","MEAN_MOTION_DDOT":"0.0000000000000","ARG_OF_PERICENTER":"45.2627","INCLINATION":"53.2210","ELEMENT_SET_NO":"999","BSTAR":"-0.00001190400000","NORAD_CAT_ID":"52880","RA_OF_ASC_NODE":"18.2628","PERIAPSIS":"538.245","RCS_SIZE":"LARGE","PERIOD":"95.438","ECCENTRICITY":"0.00021840","APOAPSIS":"541.267","TLE_LINE1":"1 52880U 22062BC  22325.87176023 -.00000478  00000-0 -11904-4 0  9993","OBJECT_ID":"2022-062BC","COUNTRY_CODE":"US","MEAN_ANOMALY":"314.8542","EPOCH":"2022-11-21T20:55:20.083872","FILE":"3666658","REF_FRAME":"TEME","GP_ID":"218436057","TIME_SYSTEM":"UTC","CENTER_NAME":"EARTH","TLE_LINE2":"2 52880  53.2210  18.2628 0002184  45.2627 314.8542 15.08836511 24333","SITE":"AFETR","DECAY_DATE":null,"REV_AT_EPOCH":"2433","MEAN_ELEMENT_THEORY":"SGP4","OBJECT_TYPE":"PAYLOAD","MEAN_MOTION":"15.08836511","EPHEMERIS_TYPE":"0"},{"MEAN_MOTION":"15.08835878","EPHEMERIS_TYPE":"0","TLE_LINE2":"2 52881  53.2202  18.2441 0002434  39.4292 320.6877 15.08835878 24330","REV_AT_EPOCH":"2433","DECAY_DATE":null,"SITE":"AFETR","OBJECT_TYPE":"PAYLOAD","MEAN_ELEMENT_THEORY":"SGP4","OBJECT_ID":"2022-062BD","TLE_LINE1":"1 52881U 22062BD  22325.87544034  .00001104  00000-0  87490-4 0  9993","APOAPSIS":"541.442","PERIOD":"95.438","RCS_SIZE":"LARGE","ECCENTRICITY":"0.00024340","PERIAPSIS":"538.074","FILE":"3666658","EPOCH":"2022-11-21T21:00:38.045376","COUNTRY_CODE":"US","MEAN_ANOMALY":"320.6877","TIME_SYSTEM":"UTC","CENTER_NAME":"EARTH","GP_ID":"218435237","REF_FRAME":"TEME","OBJECT_NAME":"STARLINK-4192","SEMIMAJOR_AXIS":"6917.893","MEAN_MOTION_DOT":"0.00001104","LAUNCH_DATE":"2022-06-17","INCLINATION":"53.2202","ARG_OF_PERICENTER":"39.4292","MEAN_MOTION_DDOT":"0.0000000000000","CLASSIFICATION_TYPE":"U","NORAD_CAT_ID":"52881","BSTAR":"0.00008749000000","ELEMENT_SET_NO":"999","RA_OF_ASC_NODE":"18.2441"},{"MEAN_ELEMENT_THEORY":"SGP4","OBJECT_TYPE":"PAYLOAD","TLE_LINE2":"2 52882  53.2211  18.2945 0002727  27.3437 332.7699 15.08845636 24331","REV_AT_EPOCH":"2433","SITE":"AFETR","DECAY_DATE":null,"MEAN_MOTION":"15.08845636","EPHEMERIS_TYPE":"0","BSTAR":"0.00009137200000","NORAD_CAT_ID":"52882","ELEMENT_SET_NO":"999","RA_OF_ASC_NODE":"18.2945","OBJECT_NAME":"STARLINK-4181","LAUNCH_DATE":"2022-06-17","MEAN_MOTION_DOT":"0.00001166","SEMIMAJOR_AXIS":"6917.863","INCLINATION":"53.2211","CLASSIFICATION_TYPE":"U","ARG_OF_PERICENTER":"27.3437","MEAN_MOTION_DDOT":"0.0000000000000","FILE":"3666658","MEAN_ANOMALY":"332.7699","COUNTRY_CODE":"US","EPOCH":"2022-11-21T20:44:43.531008","TIME_SYSTEM":"UTC","CENTER_NAME":"EARTH","GP_ID":"218435733","REF_FRAME":"TEME","APOAPSIS":"541.615","TLE_LINE1":"1 52882U 22062BE  22325.86439272  .00001166  00000-0  91372-4 0  9992","OBJECT_ID":"2022-062BE","PERIAPSIS":"537.842","RCS_SIZE":"LARGE","ECCENTRICITY":"0.00027270","PERIOD":"95.437"},{"TLE_LINE2":"2 52986  53.2156  98.6062 0001663  43.5594 316.5529 15.08809396 21093","REV_AT_EPOCH":"2109","DECAY_DATE":null,"SITE":"AFETR","OBJECT_TYPE":"PAYLOAD","MEAN_ELEMENT_THEORY":"SGP4","MEAN_MOTION":"15.08809396","EPHEMERIS_TYPE":"0","OBJECT_NAME":"STARLINK-4260","SEMIMAJOR_AXIS":"6917.974","MEAN_MOTION_DOT":"-0.00003807","LAUNCH_DATE":"2022-07-07","INCLINATION":"53.2156","MEAN_MOTION_DDOT":"0.0000000000000","ARG_OF_PERICENTER":"43.5594","CLASSIFICATION_TYPE":"U","NORAD_CAT_ID":"52986","BSTAR":"-0.00022142000000","ELEMENT_SET_NO":"999","RA_OF_ASC_NODE":"98.6062","OBJECT_ID":"2022-076A","TLE_LINE1":"1 52986U 22076A   22325.79818035 -.00003807  00000-0 -22142-3 0  9996","APOAPSIS":"540.989","PERIOD":"95.439","RCS_SIZE":"LARGE","ECCENTRICITY":"0.00016630","PERIAPSIS":"538.688","FILE":"3666658","COUNTRY_CODE":"US","MEAN_ANOMALY":"316.5529","EPOCH":"2022-11-21T19:09:22.782240","CENTER_NAME":"EARTH","TIME_SYSTEM":"UTC","REF_FRAME":"TEME","GP_ID":"218435578"},{"INCLINATION":"53.2179","CLASSIFICATION_TYPE":"U","MEAN_MOTION_DDOT":"0.0000000000000","ARG_OF_PERICENTER":"44.1964","OBJECT_NAME":"STARLINK-4259","LAUNCH_DATE":"2022-07-07","SEMIMAJOR_AXIS":"6917.882","MEAN_MOTION_DOT":"-0.00001410","RA_OF_ASC_NODE":"108.7320","BSTAR":"-0.00007046600000","NORAD_CAT_ID":"52987","ELEMENT_SET_NO":"999","APOAPSIS":"541.296","TLE_LINE1":"1 52987U 22076B   22325.77148201 -.00001410  00000-0 -70466-4 0  9997","OBJECT_ID":"2022-076B","PERIAPSIS":"538.198","ECCENTRICITY":"0.00022390","RCS_SIZE":"LARGE","PERIOD":"95.438","CENTER_NAME":"EARTH","TIME_SYSTEM":"UTC","GP_ID":"218435411","REF_FRAME":"TEME","FILE":"3666658","COUNTRY_CODE":"US","EPOCH":"2022-11-21T18:30:56.045664","MEAN_ANOMALY":"315.9207","REV_AT_EPOCH":"2095","SITE":"AFETR","DECAY_DATE":null,"TLE_LINE2":"2 52987  53.2179 108.7320 0002239  44.1964 315.9207 15.08839552 20954","MEAN_ELEMENT_THEORY":"SGP4","OBJECT_TYPE":"PAYLOAD","EPHEMERIS_TYPE":"0","MEAN_MOTION":"15.08839552"},{"REV_AT_EPOCH":"2109","DECAY_DATE":null,"SITE":"AFETR","TLE_LINE2":"2 52988  53.2165  98.6275 0002175  38.0145 322.1000 15.08834260 21096","OBJECT_TYPE":"PAYLOAD","MEAN_ELEMENT_THEORY":"SGP4","EPHEMERIS_TYPE":"0","MEAN_MOTION":"15.08834260","INCLINATION":"53.2165","ARG_OF_PERICENTER":"38.0145","MEAN_MOTION_DDOT":"0.0000000000000","CLASSIFICATION_TYPE":"U","OBJECT_NAME":"STARLINK-4291","SEMIMAJOR_AXIS":"6917.898","MEAN_MOTION_DOT":"0.00009504","LAUNCH_DATE":"2022-07-07","RA_OF_ASC_NODE":"98.6275","NORAD_CAT_ID":"52988","BSTAR":"0.00061449000000","ELEMENT_SET_NO":"999","OBJECT_ID":"2022-076C","APOAPSIS":"541.268","TLE_LINE1":"1 52988U 22076C   22325.79449070  .00009504  00000-0  61449-3 0  9998","RCS_SIZE":"LARGE","PERIOD":"95.438","ECCENTRICITY":"0.00021750","PERIAPSIS":"538.258","CENTER_NAME":"EARTH","TIME_SYSTEM":"UTC","REF_FRAME":"TEME","GP_ID":"218436231","FILE":"3666658","MEAN_ANOMALY":"322.1000","COUNTRY_CODE":"US","EPOCH":"2022-11-21T19:04:03.996480"},{"MEAN_MOTION":"15.08823977","EPHEMERIS_TYPE":"0","OBJECT_TYPE":"PAYLOAD","MEAN_ELEMENT_THEORY":"SGP4","TLE_LINE2":"2 52989  53.2195 108.4529 0002758  42.2786 317.8418 15.08823977 20969","DECAY_DATE":null,"SITE":"AFETR","REV_AT_EPOCH":"2096","COUNTRY_CODE":"US","EPOCH":"2022-11-21T20:01:02.685504","MEAN_ANOMALY":"317.8418","FILE":"3666658","REF_FRAME":"TEME","GP_ID":"218436067","TIME_SYSTEM":"UTC","CENTER_NAME":"EARTH","PERIOD":"95.439","RCS_SIZE":"LARGE","ECCENTRICITY":"0.00027580","PERIAPSIS":"537.886","OBJECT_ID":"2022-076D","TLE_LINE1":"1 52989U 22076D   22325.83405886 -.00001153  00000-0 -54369-4 0  9999","APOAPSIS":"541.702","ELEMENT_SET_NO":"999","NORAD_CAT_ID":"52989","BSTAR":"-0.00005436900000","RA_OF_ASC_NODE":"108.4529","MEAN_MOTION_DOT":"-0.00001153","SEMIMAJOR_AXIS":"6917.929","LAUNCH_DATE":"2022-07-07","OBJECT_NAME":"STARLINK-4293","ARG_OF_PERICENTER":"42.2786","MEAN_MOTION_DDOT":"0.0000000000000","CLASSIFICATION_TYPE":"U","INCLINATION":"53.2195"},{"MEAN_MOTION":"15.08836565","EPHEMERIS_TYPE":"0","OBJECT_TYPE":"PAYLOAD","MEAN_ELEMENT_THEORY":"SGP4","TLE_LINE2":"2 52990  53.2166 108.4607 0002429  47.3936 312.7261 15.08836565 20961","REV_AT_EPOCH":"2096","DECAY_DATE":null,"SITE":"AFETR","FILE":"3666658","EPOCH":"2022-11-21T19:55:42.493152","COUNTRY_CODE":"US","MEAN_ANOMALY":"312.7261","TIME_SYSTEM":"UTC","CENTER_NAME":"EARTH","GP_ID":"218435247","REF_FRAME":"TEME","OBJECT_ID":"2022-076E","APOAPSIS":"541.436","TLE_LINE1":"1 52990U 22076E   22325.83035293 -.00000916  00000-0 -39408-4 0  9995","RCS_SIZE":"LARGE","PERIOD":"95.438","ECCENTRICITY":"0.00024290","PERIAPSIS":"538.076","NORAD_CAT_ID":"52990","BSTAR":"-0.00003940800000","ELEMENT_SET_NO":"999","RA_OF_ASC_NODE":"108.4607","OBJECT_NAME":"STARLINK-4286","MEAN_MOTION_DOT":"-0.00000916","SEMIMAJOR_AXIS":"6917.891","LAUNCH_DATE":"2022-07-07","INCLINATION":"53.2166","ARG_OF_PERICENTER":"47.3936","MEAN_MOTION_DDOT":"0.0000000000000","CLASSIFICATION_TYPE":"U"}];
